# Made by eph2tle, compiled Sep 29 2024 11:19:35
# Run at Fri Oct  4 17:37:21 2024
#
#    The following TLEs (Two-Line Elements) were generated by fitting
# a numerically-integrated ephemeris,  based on the orbit given below,
# to the SDP4/SGP4 models.  Each TLE is good for the interval between
# its epoch and the epoch of the subsequent TLE (usually one day).
# The maximum deviation between the numerically integrated ephemerides
# and the TLE-based ephemeris, in kilometers,  is given for each TLE
# as the "worst residual".
#
#    This fitting is done using the 'eph2tle' code packaged with Find_Orb.
# The code has details on how the TLEs were computed :
#
#    https://github.com/Bill-Gray/find_orb/eph2tle.cpp
#
#    Be warned:  the error given is that between the numerically
# integrated ephems and the TLE model.  There will usually be at
# least some additional difference between the ephems and the actual
# motion of the satellite,  especially if the ephemerides are based
# on a short arc.  If the following orbital elements say something
# like "[based on] 10 observations 2015 Jan. 1-13",  and the TLEs
# are for 2015 May,  the extrapolation may be tenuous at best.  If
# your application requires a specific level of accuracy,  you may
# want to contact me;  I can give you some idea as to the fit of the
# underlying data (and possibly TLEs based on newer data).
#
#   You can usually find the underlying observational data,  and the
# fitted orbit,  residuals,  ephemerides,  and sometimes some comments
# about the object,  among the pages listed at
#
#    https://www.projectpluto.com/pluto/mpecs/pseudo.htm
#
#    WARNING:  for this object,  "normal" TLEs cannot be fitted.  (This
# usually means an object with an hyperbolic or nearly-parabolic orbit.)
# For this and similar cases,   an alternative model is used,  in which
# most of the traditional TLE data is replaced by six signed 8-digit hex
# numbers.  These six numbers are a state vector,  numerically integrated
# using a simplified force model.  This is necessary for objects at L2 or
# L1,  and sometimes for objects in high orbits where the SDP4/SGP4 model
# fails.  Some documentation is in 'get_el.cpp' in the source code at
# https://www.github.com/Bill-Gray/sat_code ; look for 'hex' in that file,
# with the actual integration done in 'sdp4.cpp'.  But be aware:  it's my
# own extension,  doesn't work with other code,  and is therefore used
# only when necessary.
#
#    Also,  if you use a TLE outside the "correct" time range (between
# its MJD and that of the next TLE),  all bets are off.  I've carefully
# computed and minimized the worst error over the "correct" time frame,
# but the ephemeris may (or may not) diverge wildly outside of it.
#
# Ephem range: 60587.000000 60637.000000 1.000000
# Created Fri Oct  4 17:35:51 2024
# Ephemeris start:  4 Oct 2024  0:00:00
# Ephemeris end:   23 Nov 2024  0:00:00
# Times are all TDT
# Positions/velocities are in equatorial J2000
# Orbital elements:  Cent
#    Perigee 2024 Oct 4.5008 TT = 12:01:09 (JD 2460588.0008)       Find_Orb
# Epoch 2024 Oct  4.500801 TT = JDT 2460588.000801
# q  6874.4376km                      (J2000 equator)
# H   26.97 G 0.15   Peri.  211.8521
#                    Node   357.1730
# e   1.403882       Incl.   30.0007
# From 1 observations 2024 Oct. 4 (0.00 sec); mean residual 0".0e+00
#
# 1 NoradU COSPAR   Epoch.epoch     dn/dt/2  d2n/dt2/6 BSTAR    T El# C
# 2 NoradU Inclina RAAscNode Eccent  ArgPeri MeanAno  MeanMotion Rev# C

# Worst residual: 211.28 km
# MJD 60587.000000 (2024 Oct  4  0:00)
Cent
1 61448U 24179A   24277.99919926 +000UB9X4 +003FPDWF +00206MV8H 24696
2 61448                          -00089RZ1 -000PIY48 -000EY7O4     09

# Worst residual: 10.89 km
# MJD 60588.000000 (2024 Oct  5  0:00)
Cent
1 61448U 24179A   24278.99919926 +003UBWI5 -0015Z6QM -000KAQHKH 24697
2 61448                          +000TOLRK -00077CD2 -0003BD4W     00

# Worst residual: 13.07 km
# MJD 60589.000000 (2024 Oct  6  0:00)
Cent
1 61448U 24179A   24279.99919926 +00AS6UAO -002U8EKD -001BZSW4H 24699
2 61448                          +000SJCVG -0006UV5A -00035EMI     06

# Worst residual: 1.79 km
# MJD 60590.000000 (2024 Oct  7  0:00)
Cent
1 61448U 24179A   24280.99919926 +00HLL0ZK -004H184R -002301GQH 24693
2 61448                          +000SB6J1 -0006RHQB -00033TCJ     06

# Worst residual: 0.85 km
# MJD 60591.000000 (2024 Oct  8  0:00)
Cent
1 61448U 24179A   24281.99919926 +00ODTK9Q -00636O0Z -002TP8YUH 24695
2 61448                          +000S8N0K -0006P5XX -00032PTG     01

# Worst residual: 1.08 km
# MJD 60592.000000 (2024 Oct  9  0:00)
Cent
1 61448U 24179A   24282.99919926 +00V5QLY5 -007OSUOX -003K5DP9H 24696
2 61448                          +000S8958 -0006MYVM -00031OLN     07

# Worst residual: 1.26 km
# MJD 60593.000000 (2024 Oct 10  0:00)
Cent
1 61448U 24179A   24283.99919926 +011XPOEU -0099VND3 -004ACEN6H 24696
2 61448                          +000S9091 -0006KNL9 -00030LL7     01

# Worst residual: 1.44 km
# MJD 60594.000000 (2024 Oct 11  0:00)
Cent
1 61448U 24179A   24284.99919926 +018PYJY6 -00AUDLFK -00509P4EH 24697
2 61448                          +000SAH5O -0006I4UW -0002ZFD4     08

# Worst residual: 1.64 km
# MJD 60595.000000 (2024 Oct 12  0:00)
Cent
1 61448U 24179A   24285.99919926 +01FIMEZY -00CE8QKI -005PWF0GH 24699
2 61448                          +000SCG6Y -0006FDI9 -0002Y5HB     05

# Worst residual: 1.85 km
# MJD 60596.000000 (2024 Oct 13  0:00)
Cent
1 61448U 24179A   24286.99919926 +01MBT1RP -00DXEYUC -006F7OHUH 24691
2 61448                          +000SET0R -0006CDB2 -0002WRXZ     07

# Worst residual: 2.01 km
# MJD 60597.000000 (2024 Oct 14  0:00)
Cent
1 61448U 24179A   24287.99919926 +01T5LFNP -00FFU6MY -00746MWSH 24696
2 61448                          +000SHH5T -000694I7 -0002VAZM     00

# Worst residual: 2.03 km
# MJD 60598.000000 (2024 Oct 15  0:00)
Cent
1 61448U 24179A   24288.99919926 +020024CK -00GXGDFP -007SSI39H 24695
2 61448                          +000SKFE5 -00065NIX -0002TQXM     05

# Worst residual: 1.96 km
# MJD 60599.000000 (2024 Oct 16  0:00)
Cent
1 61448U 24179A   24289.99919926 +026V9H9B -00IE7M43 -008H0KFIH 24697
2 61448                          +000SNNFW -00061YOJ -0002S410     01

# Worst residual: 1.92 km
# MJD 60600.000000 (2024 Oct 17  0:00)
Cent
1 61448U 24179A   24290.99919926 +02DR9WIW -00JU20TY -0094U5ORH 24692
2 61448                          +000SR5P1 -0005Y1X0 -0002QEBC     01

# Worst residual: 2.08 km
# MJD 60601.000000 (2024 Oct 18  0:00)
Cent
1 61448U 24179A   24291.99919926 +02KO5X7I -00L8XMXW -009S8KORH 24691
2 61448                          +000SUYU7 -0005TWMA -0002OLIZ     01

# Worst residual: 2.47 km
# MJD 60602.000000 (2024 Oct 19  0:00)
Cent
1 61448U 24179A   24292.99919926 +02RM084H -00MMS9YW -00AF70IUH 24693
2 61448                          +000SZ3GC -0005PHLO -0002MP2M     09

# Worst residual: 2.99 km
# MJD 60603.000000 (2024 Oct 20  0:00)
Cent
1 61448U 24179A   24293.99919926 +02YKVLEI -00NZJF88 -00B1OI29H 24694
2 61448                          +000T3JON -0005KR9H -0002KO4G     00

# Worst residual: 3.46 km
# MJD 60604.000000 (2024 Oct 21  0:00)
Cent
1 61448U 24179A   24294.99919926 +035KURWD -00PB45B5 -00BNNUGVH 24697
2 61448                          +000T8B2Y -0005FNUD -0002IHR0     04

# Worst residual: 3.74 km
# MJD 60605.000000 (2024 Oct 22  0:00)
Cent
1 61448U 24179A   24295.99919926 +03CM0C2O -00QLF3UX -00C93MZ2H 24698
2 61448                          +000TDCMQ -0005A5OD -0002G52B     06

# Worst residual: 3.82 km
# MJD 60606.000000 (2024 Oct 23  0:00)
Cent
1 61448U 24179A   24296.99919926 +03JOEJPC -00RUCL64 -00CTY9NPH 24699
2 61448                          +000TIMWJ -000547CV -0002DLB6     01

# Worst residual: 3.78 km
# MJD 60607.000000 (2024 Oct 24  0:00)
Cent
1 61448U 24179A   24297.99919926 +03QS3B1I -00T1SKPZ -00DE5YRNH 24691
2 61448                          +000TO486 -0004XRSG -0002ATW7     08

# Worst residual: 3.75 km
# MJD 60608.000000 (2024 Oct 25  0:00)
Cent
1 61448U 24179A   24298.99919926 +03XX43DP -00U7MTVA -00DXOU4QH 24690
2 61448                          +000TTQTT -0004QU6K -00027UDU     06

# Worst residual: 3.80 km
# MJD 60609.000000 (2024 Oct 26  0:00)
Cent
1 61448U 24179A   24299.99919926 +0453HYM2 -00VBQY7W -00EGGWF6H 24697
2 61448                          +000TZGXB -0004JDZK -00024MH7     04

# Worst residual: 3.96 km
# MJD 60610.000000 (2024 Oct 27  0:00)
Cent
1 61448U 24179A   24300.99919926 +04CB9JBV -00WE0FJE -00EYG45XH 24695
2 61448                          +000U58RG -0004BEUR -000215Z3     05

# Worst residual: 4.19 km
# MJD 60611.000000 (2024 Oct 28  0:00)
Cent
1 61448U 24179A   24301.99919926 +04JKF14A -00XEAP8L -00FFKEIZH 24691
2 61448                          +000UB0MF -00042WKZ -0001XGR9     03

# Worst residual: 4.46 km
# MJD 60612.000000 (2024 Oct 29  0:00)
Cent
1 61448U 24179A   24302.99919926 +04QUY8V2 -00YCH5K9 -00FVRNXPH 24693
2 61448                          +000UGQTE -0003TV3M -0001TIRS     04

# Worst residual: 4.72 km
# MJD 60613.000000 (2024 Oct 30  0:00)
Cent
1 61448U 24179A   24303.99919926 +04Y6UKXY -00Z8F6N4 -00GAZSMJH 24694
2 61448                          +000UMDOB -0003KAGA -0001PC0X     01

# Worst residual: 4.94 km
# MJD 60614.000000 (2024 Oct 31  0:00)
Cent
1 61448U 24179A   24304.99919926 +055K31DP -010207IL -00GP6P67H 24690
2 61448                          +000URVJK -0003A6T1 -0001KWLA     08

# Worst residual: 5.15 km
# MJD 60615.000000 (2024 Nov  1  0:00)
Cent
1 61448U 24179A   24305.99919926 +05CYM7YA -010T3P7V -00H2AB1WH 24694
2 61448                          +000UX6S4 -0002ZKGH -0001G8LV     08

# Worst residual: 5.36 km
# MJD 60616.000000 (2024 Nov  2  0:00)
Cent
1 61448U 24179A   24306.99919926 +05KEECE5 -011HL7Y7 -00HE8L9GH 24692
2 61448                          +000V29S2 -0002OFUF -0001BCAB     03

